[{"name":"FLYING LAPTOP","l1":"1 42831U 17042G   26183.78291487  .00006414  00000+0  50145-3 0  9990","l2":"2 42831  97.4760 338.7224 0020006  71.9828 288.3575 15.01250097488799","cat":"science"},{"name":"SALSAT","l1":"1 46495U 20068K   26183.25417132  .00008637  00000+0  29987-3 0  9990","l2":"2 46495  97.8847 187.2381 0008038 243.7769 116.2645 15.30013367317667","cat":"science"},{"name":"PROBA-1","l1":"1 26958U 01049B   26183.80122709  .00001173  00000+0  78967-4 0  9995","l2":"2 26958  97.9596 192.8794 0056625  70.7372 289.9968 15.07562476345979","cat":"science"},{"name":"CUTE-1 (CO-55)","l1":"1 27844U 03031E   26182.99996152  .00000303  00000+0  15002-3 0  9997","l2":"2 27844  98.6736 191.3725 0010408 137.1021 223.0971 14.24344824193780","cat":"other"},{"name":"CUBESAT XI-IV (CO-57)","l1":"1 27848U 03031J   26183.76896903  .00000279  00000+0  14166-3 0  9992","l2":"2 27848  98.6769 191.8320 0009990 152.4134 207.7577 14.23629228193598","cat":"other"},{"name":"APRIZESAT 4","l1":"1 35684U 09041D   26183.15936325  .00000764  00000+0  97714-4 0  9992","l2":"2 35684  98.1409 258.7781 0041886 273.0980  86.5440 14.83899214913585","cat":"communications"},{"name":"APRIZESAT 3","l1":"1 35686U 09041F   26183.68055769  .00001201  00000+0  10820-3 0  9995","l2":"2 35686  98.2079 337.6483 0061916  16.9430 343.3839 14.96282760918696","cat":"communications"},{"name":"PROBA-2","l1":"1 36037U 09059B   26183.78372693  .00000221  00000+0  62056-4 0  9994","l2":"2 36037  98.2454   6.9205 0012235 228.9186 131.0955 14.54869294883795","cat":"science"},{"name":"APRIZESAT 5","l1":"1 37792U 11044E   26183.54562955  .00001194  00000+0  15796-3 0  9994","l2":"2 37792  98.2450 117.0216 0051161 314.4674  45.2359 14.81108748801064","cat":"communications"},{"name":"APRIZESAT 6","l1":"1 37793U 11044F   26183.72179529  .00000982  00000+0  14531-3 0  9996","l2":"2 37793  98.2350  94.5379 0043990  37.6901 344.9611 14.76941007799446","cat":"communications"},{"name":"PROBA-V","l1":"1 39159U 13021A   26183.65206640  .00000131  00000+0  75585-4 0  9991","l2":"2 39159  98.3594 161.4958 0005436  88.2056 271.9746 14.23600983683311","cat":"science"},{"name":"APRIZESAT 7","l1":"1 39416U 13066A   26183.78470457  .00001144  00000+0  11825-3 0  9990","l2":"2 39416  97.7716 136.7811 0036371 157.2885 202.9952 14.91597426683559","cat":"communications"},{"name":"APRIZESAT 8","l1":"1 39425U 13066K   26183.67869416  .00001022  00000+0  11643-3 0  9998","l2":"2 39425  97.8225 130.9311 0044600 233.8710 125.8374 14.87680105681975","cat":"communications"},{"name":"BUGSAT-1 (TITA)","l1":"1 40014U 14033E   26183.74877539  .00008354  00000+0  43703-3 0  9999","l2":"2 40014  98.0432 277.2098 0028890 126.4020 233.9881 15.15764835658192","cat":"other"},{"name":"SAUDISAT 4","l1":"1 40016U 14033G   26183.67353352  .00000691  00000+0  97670-4 0  9994","l2":"2 40016  97.7603 329.2740 0045307  24.7459 335.5912 14.79564269648360","cat":"other"},{"name":"APRIZESAT 9","l1":"1 40018U 14033J   26183.61497832  .00000915  00000+0  14128-3 0  9997","l2":"2 40018  97.9081 316.4379 0066859 149.7034 210.8067 14.74237994645834","cat":"communications"},{"name":"APRIZESAT 10","l1":"1 40019U 14033K   26183.63688002  .00000696  00000+0  11681-3 0  9998","l2":"2 40019  97.9670 310.2533 0077827 223.7213 135.7814 14.70898784644528","cat":"communications"},{"name":"TECHDEMOSAT-1 (TDS-1)","l1":"1 40076U 14037H   26183.69607961  .00008733  00000+0  49136-3 0  9992","l2":"2 40076  98.3815 177.4486 0005633 199.5033 160.5981 15.13527171650573","cat":"other"},{"name":"TECHNOSAT","l1":"1 42829U 17042E   26183.67421030  .00003012  00000+0  21541-3 0  9993","l2":"2 42829  97.4294 340.7445 0018579  44.9209 315.3517 15.05047398489038","cat":"other"},{"name":"HAWK-A","l1":"1 43765U 18099H   26183.57373039  .00007466  00000+0  29894-3 0  9996","l2":"2 43765  97.3901 235.6097 0033542 229.1034 130.7297 15.24825216415449","cat":"other"},{"name":"HAWK-B","l1":"1 43794U 18099AN  26183.61366169  .00006927  00000+0  29393-3 0  9994","l2":"2 43794  97.3948 235.0320 0030413 247.8388 111.9620 15.22992160415383","cat":"other"},{"name":"HAWK-C","l1":"1 43799U 18099AT  26183.58078067  .00008396  00000+0  30026-3 0  9999","l2":"2 43799  97.3878 236.6053 0039169 229.0602 130.7245 15.28320860416266","cat":"other"},{"name":"HAWK-2C","l1":"1 47502U 21006CT  26183.53937733  .00007487  00000+0  22364-3 0  9992","l2":"2 47502  97.2264 227.5437 0008195 137.0400 223.1485 15.34851524301858","cat":"other"},{"name":"HAWK-2A","l1":"1 47505U 21006CW  26183.02016324  .00007854  00000+0  23445-3 0  9992","l2":"2 47505  97.2308 227.7213 0007607 141.4283 218.7506 15.34859675301779","cat":"other"},{"name":"HAWK-2B","l1":"1 47508U 21006CZ  26183.66664475  .00008369  00000+0  24865-3 0  9990","l2":"2 47508  97.2174 226.6622 0008263 138.1480 222.0397 15.34981442301871","cat":"other"},{"name":"HAWK-3B","l1":"1 48931U 21059BE  26183.49171354  .00046040  00000+0  36980-3 0  9998","l2":"2 48931  97.6639  21.6610 0003426 250.4226 109.6666 15.70861042280254","cat":"other"},{"name":"HAWK-3C","l1":"1 48948U 21059BX  26183.10917826  .00051354  00000+0  41275-3 0  9993","l2":"2 48948  97.6758  26.9528 0003557 255.0517 105.0351 15.70822629280191","cat":"other"},{"name":"HAWK-3A","l1":"1 48957U 21059CG  26183.49127529  .00047397  00000+0  38069-3 0  9997","l2":"2 48957  97.6707  24.5647 0003605 255.1369 104.9494 15.70854979280257","cat":"other"},{"name":"HAWK-5C","l1":"1 52754U 22057Y   26183.71508847  .00019146  00000+0  32022-3 0  9991","l2":"2 52754  97.6614 344.3900 0003912  31.2505 328.8979 15.51943220228754","cat":"other"},{"name":"HAWK-5B","l1":"1 52756U 22057AA  26183.71491038  .00019227  00000+0  32151-3 0  9999","l2":"2 52756  97.6626 342.7407 0004517  21.3656 338.7783 15.51945572228757","cat":"other"}]